STARLINK-3278           
1 50830U 22001AD  25058.40028494  .00000074  00000+0  22745-4 0  9996
2 50830  53.2172  63.8588 0001493  89.5786 270.5377 15.08838928173617
STARLINK-3299           
1 50831U 22001AE  25058.27977240  .00000708  00000+0  62602-4 0  9994
2 50831  53.2190  54.4664 0001492  93.5441 266.5721 15.08838220173737
STARLINK-3328           
1 50832U 22001AF  25058.40123520 -.00008271  00000+0 -50151-3 0  9994
2 50832  53.2170  63.9019 0001276  92.1569 267.9569 15.08888503173612
STARLINK-3331           
1 50834U 22001AH  25058.38488100 -.00001047  00000+0 -48964-4 0  9995
2 50834  53.2168  63.9221 0000930  89.9403 270.1695 15.08016965173603
STARLINK-3310           
1 50835U 22001AJ  25058.72047232  .00011228  00000+0  72345-3 0  9990
2 50835  53.2190  62.5381 0001763  78.3450 281.7740 15.08788063174919
STARLINK-3330           
1 50836U 22001AK  25058.43430586 -.00012334  00000+0 -75849-3 0  9990
2 50836  53.2158  63.4833 0000970 112.8335 247.2760 15.08827313173517
STARLINK-3318           
1 50837U 22001AL  25058.68088250  .00000159  00000+0  28138-4 0  9995
2 50837  53.2175  52.5969 0002689  22.9531 337.1581 15.08834892174997
STARLINK-3322           
1 50838U 22001AM  25058.58334491 -.00006367  00000+0 -19132-3 0  9998
2 50838  53.1984  39.7692 0003402  84.4978 146.0523 15.32052898  5808
STARLINK-3320           
1 50839U 22001AN  25058.23467540  .00001071  00000+0  85382-4 0  9999
2 50839  53.2166  64.5996 0001651  92.0692 268.0489 15.08848180173573
STARLINK-3295           
1 50840U 22001AP  25058.23099983 -.00000241  00000+0  29703-5 0  9998
2 50840  53.2180  64.6178 0002052 101.1268 258.9955 15.08847118173577
STARLINK-3300           
1 50841U 22001AQ  25058.30828369  .00002875  00000+0  19855-3 0  9994
2 50841  53.2164  64.2718 0001496  93.2533 266.8630 15.08861199174892
STARLINK-3302           
1 50842U 22001AR  25058.29355061 -.00003677  00000+0 -21289-3 0  9994
2 50842  53.2170  64.3359 0001136  74.8328 285.2789 15.08870907174875
STARLINK-3325           
1 50843U 22001AS  25058.71307484  .00002159  00000+0  15369-3 0  9992
2 50843  53.2179  62.4560 0001336  96.7644 263.3500 15.08838700174855
STARLINK-3326           
1 50844U 22001AT  25058.41499618  .00002309  00000+0  16308-3 0  9992
2 50844  53.2154  63.7927 0001445  87.9933 272.1224 15.08842535173619
STARLINK-3230           
1 50845U 22001AU  25058.39292526  .00003000  00000+0  20652-3 0  9995
2 50845  53.2202  63.8907 0001684  83.9172 276.2012 15.08832559173614
STARLINK-3308           
1 50846U 22001AV  25058.42237392  .00004960  00000+0  32946-3 0  9995
2 50846  53.2168  63.8747 0000459 118.0259 242.0780 15.08841797173610
STARLINK-3315           
1 50848U 22001AX  25058.20893827  .00006427  00000+0  42156-3 0  9998
2 50848  53.2171  64.7201 0001003  92.1143 267.9964 15.08837555173584
STARLINK-3311           
1 50849U 22001AY  25058.28619175 -.00001393  00000+0 -69458-4 0  9993
2 50849  53.2172  64.3726 0001416  97.1908 262.9245 15.08836900173597
STARLINK-3312           
1 50850U 22001AZ  25058.28988133  .00005958  00000+0  39200-3 0  9998
2 50850  53.2172  24.3529 0001504  85.8885 274.2279 15.08851645174690
STARLINK-3314           
1 50851U 22001BA  25058.33035425  .00000768  00000+0  66326-4 0  9996
2 50851  53.2179  64.0967 0001521  90.4900 269.6266 15.08838885173609
STARLINK-3366           
1 51104U 22005A   25058.68825408 -.00003832  00000+0 -22289-3 0  9994
2 51104  53.2166 172.5633 0002447  75.7874 284.3390 15.08823084173388
STARLINK-3350           
1 51105U 22005B   25058.59623371 -.00000318  00000+0 -19098-5 0  9992
2 51105  53.2154 172.9764 0001401  90.6611 269.4542 15.08855166172253
STARLINK-3176           
1 51106U 22005C   25058.57416955 -.00002348  00000+0 -12954-3 0  9996
2 51106  53.2147 173.0819 0001115  89.2440 270.8680 15.08822440172242
STARLINK-3362           
1 51108U 22005E   25058.59256518 -.00000398  00000+0 -69322-5 0  9993
2 51108  53.2172 172.9946 0001573  91.1788 268.9385 15.08833585173362
STARLINK-3358           
1 51109U 22005F   25058.61096589  .00000178  00000+0  29283-4 0  9992
2 51109  53.2151 172.8645 0001061  79.6484 280.4628 15.08828354173368
STARLINK-3344           
1 51110U 22005G   25058.58149743  .00003813  00000+0  25738-3 0  9990
2 51110  53.2150 173.0262 0001425  90.9884 269.1271 15.08857942172251
STARLINK-3173           
1 51111U 22005H   25058.49319830  .00001303  00000+0  99928-4 0  9992
2 51111  53.2150 173.4430 0001444  86.7281 273.3877 15.08842384172239
STARLINK-3374           
1 51112U 22005J   25058.57879040  .00001416  00000+0  10705-3 0  9996
2 51112  53.2149 173.0285 0001239  89.6507 270.4627 15.08843909172254
STARLINK-3372           
1 51113U 22005K   25058.57048543  .00000817  00000+0  69406-4 0  9990
2 51113  53.2164 173.0976 0001184  86.2580 273.8548 15.08828670172248
STARLINK-3375           
1 51114U 22005L   25058.58888860  .00013758  00000+0  88006-3 0  9990
2 51114  53.2163 173.0134 0001419  86.5357 273.5798 15.08871391173366
STARLINK-3397           
1 51115U 22005M   25058.49688250 -.00000132  00000+0  98005-5 0  9997
2 51115  53.2183 173.4316 0001609  92.8724 267.2452 15.08846550172235
STARLINK-3243           
1 51116U 22005N   25058.57510626  .00003423  00000+0  23292-3 0  9997
2 51116  53.2167 173.0502 0001251  94.4937 265.6198 15.08857386172247
STARLINK-3391           
1 51117U 22005P   25058.60357918  .00003549  00000+0  24086-3 0  9996
2 51117  53.2164 172.8310 0001317  88.2989 271.8154 15.08855753173361
STARLINK-3394           
1 51118U 22005Q   25058.69926778  .00002554  00000+0  17840-3 0  9997
2 51118  53.2185 172.5202 0001517  94.2091 265.9074 15.08854948173376
STARLINK-3398           
1 51120U 22005S   25058.60456974 -.00000516  00000+0 -14302-4 0  9996
2 51120  53.2167 172.9510 0001551  81.1231 278.9936 15.08833625173363
STARLINK-3399           
1 51121U 22005T   25058.48680934 -.00000605  00000+0 -19922-4 0  9990
2 51121  53.2159 173.4828 0001983  95.0644 265.0575 15.08826479172234
STARLINK-3392           
1 51123U 22005V   25058.59993094 -.00000741  00000+0 -28509-4 0  9990
2 51123  53.2176 172.9618 0001252  86.6657 273.4478 15.08826429173337
STARLINK-3389           
1 51124U 22005W   25058.51069615 -.00001469  00000+0 -74283-4 0  9994
2 51124  53.2182 183.3679 0001442 101.9405 258.1749 15.08814097172104
STARLINK-3387           
1 51125U 22005X   25058.76556139  .00000639  00000+0  58228-4 0  9991
2 51125  53.2159 182.2280 0001334  75.7870 284.3271 15.08836322173241
STARLINK-3386           
1 51126U 22005Y   25058.50796686 -.00000293  00000+0 -35452-6 0  9991
2 51126  53.2171 183.3885 0001295  93.7062 266.4078 15.08829880172109
STARLINK-3370           
1 51127U 22005Z   25058.76924475 -.00001264  00000+0 -61340-4 0  9991
2 51127  53.2162 182.2145 0001517  89.8966 270.2200 15.08835862173257
STARLINK-3400           
1 51128U 22005AA  25058.48491746 -.00000364  00000+0 -48074-5 0  9991
2 51128  53.2154 183.4777 0000907  74.9981 285.1111 15.08837442172089
STARLINK-3396           
1 51129U 22005AB  25058.51164423  .00001755  00000+0  12842-3 0  9990
2 51129  53.2179 183.3608 0001319 102.7453 257.3686 15.08814784172094
STARLINK-3395           
1 51130U 22005AC  25058.49596374  .00000028  00000+0  19860-4 0  9993
2 51130  53.2179 183.4284 0001398  95.9228 264.1923 15.08830711172084
STARLINK-3388           
1 51131U 22005AD  25058.75356095  .00013537  00000+0  86693-3 0  9993
2 51131  53.2167 182.2717 0001439  92.4142 267.7015 15.08843365173242
STARLINK-3393           
1 51132U 22005AE  25058.49228043  .00000749  00000+0  65146-4 0  9998
2 51132  53.2179 183.4445 0001491 101.6331 258.4828 15.08841681172087
STARLINK-3356           
1 51133U 22005AF  25058.61373076  .00000084  00000+0  23394-4 0  9991
2 51133  53.2172 182.9009 0001501  97.4185 262.6977 15.08828130172101
STARLINK-3183           
1 51134U 22005AG  25058.58248190  .00010840  00000+0  69802-3 0  9990
2 51134  53.2168 173.0402 0002199  98.9994 261.1247 15.08845364172251
STARLINK-3363           
1 51135U 22005AH  25058.59994332  .00002087  00000+0  14917-3 0  9999
2 51135  53.2163 182.8594 0001599  88.6211 271.4964 15.08840701173226
STARLINK-3253           
1 51136U 22005AJ  25058.52538555 -.00001278  00000+0 -62209-4 0  9995
2 51136  53.2174 183.0979 0001392  96.3929 263.7222 15.08843882172090
STARLINK-3180           
1 51137U 22005AK  25058.59901197  .00000265  00000+0  34747-4 0  9998
2 51137  53.2149 182.9681 0001140  87.5932 272.5191 15.08829107173221
STARLINK-3177           
1 51138U 22005AL  25058.60635851 -.00000580  00000+0 -18344-4 0  9999
2 51138  53.2138 182.9328 0001392  85.8830 274.2321 15.08843751173220
STARLINK-3172           
1 51139U 22005AM  25058.72508779 -.00000395  00000+0 -67103-5 0  9993
2 51139  53.2160 182.4103 0001887  81.3488 278.7718 15.08832094173240
STARLINK-3175           
1 51140U 22005AN  25058.60364839  .00004735  00000+0  31535-3 0  9997
2 51140  53.2137 182.9564 0001263 101.3820 258.7314 15.08847026173222
STARLINK-3179           
1 51141U 22005AP  25058.78301291 -.00002352  00000+0 -12977-3 0  9994
2 51141  53.2167 182.1402 0001137  70.8935 289.2180 15.08826808173254
STARLINK-3369           
1 51142U 22005AQ  25058.58520147  .00000864  00000+0  72356-4 0  9998
2 51142  53.2140 173.0929 0000970  98.9705 261.1397 15.08841983172247
STARLINK-3184           
1 51143U 22005AR  25058.76737365 -.00001981  00000+0 -10646-3 0  9997
2 51143  53.2176 192.2093 0001810 105.3209 254.7983 15.08826921173108
STARLINK-3185           
1 51144U 22005AS  25058.52267375  .00002057  00000+0  14731-3 0  9993
2 51144  53.2165 183.3220 0001299  94.1102 266.0039 15.08834627172107
STARLINK-3354           
1 51146U 22005AU  25058.59627430  .00000858  00000+0  72003-4 0  9998
2 51146  53.2120 182.9888 0001407  84.4336 275.6817 15.08846929173229
